CCSDS_OMM_VERS = 2.0
CREATION_DATE  = 
ORIGINATOR     = 

OBJECT_NAME    = SL-3 R/B
OBJECT_ID      = 1982-079B
CENTER_NAME    = EARTH
REF_FRAME      = TEME
TIME_SYSTEM    = UTC
MEAN_ELEMENT_THEORY = SGP/SGP4

EPOCH          = 2026-01-31T21:52:02.844192
MEAN_MOTION    = 15.24270542
ECCENTRICITY   = .00242405
INCLINATION    = 81.1437
RA_OF_ASC_NODE = 236.4916
ARG_OF_PERICENTER = 291.8935
MEAN_ANOMALY   = 67.9720

EPHEMERIS_TYPE = 0
CLASSIFICATION_TYPE = U
NORAD_CAT_ID   = 13403
ELEMENT_SET_NO = 999
REV_AT_EPOCH   = 37209
BSTAR          = .21641575E-3
MEAN_MOTION_DOT = .5352E-4
MEAN_MOTION_DDOT = 0

CCSDS_OMM_VERS = 2.0
CREATION_DATE  = 
ORIGINATOR     = 

OBJECT_NAME    = SL-14 R/B
OBJECT_ID      = 1982-092B
CENTER_NAME    = EARTH
REF_FRAME      = TEME
TIME_SYSTEM    = UTC
MEAN_ELEMENT_THEORY = SGP/SGP4

EPOCH          = 2026-01-31T21:37:06.495168
MEAN_MOTION    = 14.86622004
ECCENTRICITY   = .00217126
INCLINATION    = 82.5693
RA_OF_ASC_NODE = 175.7984
ARG_OF_PERICENTER = 65.2201
MEAN_ANOMALY   = 33.3334

EPHEMERIS_TYPE = 0
CLASSIFICATION_TYPE = U
NORAD_CAT_ID   = 13553
ELEMENT_SET_NO = 999
REV_AT_EPOCH   = 32346
BSTAR          = .69242204E-4
MEAN_MOTION_DOT = .642E-5
MEAN_MOTION_DDOT = 0

CCSDS_OMM_VERS = 2.0
CREATION_DATE  = 
ORIGINATOR     = 

OBJECT_NAME    = SL-3 R/B
OBJECT_ID      = 1983-010B
CENTER_NAME    = EARTH
REF_FRAME      = TEME
TIME_SYSTEM    = UTC
MEAN_ELEMENT_THEORY = SGP/SGP4

EPOCH          = 2026-01-31T12:53:03.642144
MEAN_MOTION    = 15.45054491
ECCENTRICITY   = .00172838
INCLINATION    = 81.1013
RA_OF_ASC_NODE = 47.7558
ARG_OF_PERICENTER = 170.9006
MEAN_ANOMALY   = 189.2555

EPHEMERIS_TYPE = 0
CLASSIFICATION_TYPE = U
NORAD_CAT_ID   = 13819
ELEMENT_SET_NO = 999
REV_AT_EPOCH   = 35220
BSTAR          = .27307541E-3
MEAN_MOTION_DOT = .13004E-3
MEAN_MOTION_DDOT = 0

CCSDS_OMM_VERS = 2.0
CREATION_DATE  = 
ORIGINATOR     = 

OBJECT_NAME    = SL-3 R/B
OBJECT_ID      = 1983-075B
CENTER_NAME    = EARTH
REF_FRAME      = TEME
TIME_SYSTEM    = UTC
MEAN_ELEMENT_THEORY = SGP/SGP4

EPOCH          = 2026-01-31T22:13:00.524928
MEAN_MOTION    = 15.37440506
ECCENTRICITY   = .00222981
INCLINATION    = 97.6117
RA_OF_ASC_NODE = 35.1458
ARG_OF_PERICENTER = 6.9784
MEAN_ANOMALY   = 353.1766

EPHEMERIS_TYPE = 0
CLASSIFICATION_TYPE = U
NORAD_CAT_ID   = 14208
ELEMENT_SET_NO = 999
REV_AT_EPOCH   = 32450
BSTAR          = .29307797E-3
MEAN_MOTION_DOT = .10764E-3
MEAN_MOTION_DDOT = 0

CCSDS_OMM_VERS = 2.0
CREATION_DATE  = 
ORIGINATOR     = 

OBJECT_NAME    = COSMOS 1536
OBJECT_ID      = 1984-013A
CENTER_NAME    = EARTH
REF_FRAME      = TEME
TIME_SYSTEM    = UTC
MEAN_ELEMENT_THEORY = SGP/SGP4

EPOCH          = 2026-01-31T19:25:19.053984
MEAN_MOTION    = 15.23311780
ECCENTRICITY   = .00154305
INCLINATION    = 82.5476
RA_OF_ASC_NODE = 144.4861
ARG_OF_PERICENTER = 55.8945
MEAN_ANOMALY   = 304.3754

EPHEMERIS_TYPE = 0
CLASSIFICATION_TYPE = U
NORAD_CAT_ID   = 14699
ELEMENT_SET_NO = 999
REV_AT_EPOCH   = 26700
BSTAR          = .24962741E-3
MEAN_MOTION_DOT = .5974E-4
MEAN_MOTION_DDOT = 0

CCSDS_OMM_VERS = 2.0
CREATION_DATE  = 
ORIGINATOR     = 

OBJECT_NAME    = SL-14 R/B
OBJECT_ID      = 1984-027B
CENTER_NAME    = EARTH
REF_FRAME      = TEME
TIME_SYSTEM    = UTC
MEAN_ELEMENT_THEORY = SGP/SGP4

EPOCH          = 2026-01-31T19:00:09.131904
MEAN_MOTION    = 14.85938906
ECCENTRICITY   = .00195208
INCLINATION    = 82.5413
RA_OF_ASC_NODE = 279.6247
ARG_OF_PERICENTER = 95.1517
MEAN_ANOMALY   = 265.1927

EPHEMERIS_TYPE = 0
CLASSIFICATION_TYPE = U
NORAD_CAT_ID   = 14820
ELEMENT_SET_NO = 999
REV_AT_EPOCH   = 24215
BSTAR          = .57813297E-4
MEAN_MOTION_DOT = .531E-5
MEAN_MOTION_DDOT = 0

CCSDS_OMM_VERS = 2.0
CREATION_DATE  = 
ORIGINATOR     = 

OBJECT_NAME    = SL-8 R/B
OBJECT_ID      = 1985-006B
CENTER_NAME    = EARTH
REF_FRAME      = TEME
TIME_SYSTEM    = UTC
MEAN_ELEMENT_THEORY = SGP/SGP4

EPOCH          = 2026-01-31T23:54:07.677216
MEAN_MOTION    = 14.37762919
ECCENTRICITY   = .00196776
INCLINATION    = 74.0477
RA_OF_ASC_NODE = 328.6659
ARG_OF_PERICENTER = 253.2297
MEAN_ANOMALY   = 202.2234

EPHEMERIS_TYPE = 0
CLASSIFICATION_TYPE = U
NORAD_CAT_ID   = 15483
ELEMENT_SET_NO = 999
REV_AT_EPOCH   = 14875
BSTAR          = .10366326E-3
MEAN_MOTION_DOT = .286E-5
MEAN_MOTION_DDOT = 0

CCSDS_OMM_VERS = 2.0
CREATION_DATE  = 
ORIGINATOR     = 

OBJECT_NAME    = SL-12 R/B(2)
OBJECT_ID      = 1985-042D
CENTER_NAME    = EARTH
REF_FRAME      = TEME
TIME_SYSTEM    = UTC
MEAN_ELEMENT_THEORY = SGP/SGP4

EPOCH          = 2026-01-31T20:28:52.846752
MEAN_MOTION    = 14.21970798
ECCENTRICITY   = .00354158
INCLINATION    = 71.1081
RA_OF_ASC_NODE = 165.5503
ARG_OF_PERICENTER = 186.6904
MEAN_ANOMALY   = 339.4445

EPHEMERIS_TYPE = 0
CLASSIFICATION_TYPE = U
NORAD_CAT_ID   = 15772
ELEMENT_SET_NO = 999
REV_AT_EPOCH   = 10915
BSTAR          = .10464824E-3
MEAN_MOTION_DOT = .185E-5
MEAN_MOTION_DDOT = 0

CCSDS_OMM_VERS = 2.0
CREATION_DATE  = 
ORIGINATOR     = 

OBJECT_NAME    = SL-14 R/B
OBJECT_ID      = 1985-069B
CENTER_NAME    = EARTH
REF_FRAME      = TEME
TIME_SYSTEM    = UTC
MEAN_ELEMENT_THEORY = SGP/SGP4

EPOCH          = 2026-01-31T12:26:34.274400
MEAN_MOTION    = 14.86388126
ECCENTRICITY   = .0017717
INCLINATION    = 82.5240
RA_OF_ASC_NODE = 59.8954
ARG_OF_PERICENTER = 319.3483
MEAN_ANOMALY   = 40.6410

EPHEMERIS_TYPE = 0
CLASSIFICATION_TYPE = U
NORAD_CAT_ID   = 15945
ELEMENT_SET_NO = 999
REV_AT_EPOCH   = 16731
BSTAR          = .62740484E-4
MEAN_MOTION_DOT = .579E-5
MEAN_MOTION_DDOT = 0

CCSDS_OMM_VERS = 2.0
CREATION_DATE  = 
ORIGINATOR     = 

OBJECT_NAME    = SL-16 R/B
OBJECT_ID      = 1985-097B
CENTER_NAME    = EARTH
REF_FRAME      = TEME
TIME_SYSTEM    = UTC
MEAN_ELEMENT_THEORY = SGP/SGP4

EPOCH          = 2026-01-31T22:09:20.998080
MEAN_MOTION    = 14.16593817
ECCENTRICITY   = .00092434
INCLINATION    = 71.0011
RA_OF_ASC_NODE = 217.9540
ARG_OF_PERICENTER = 302.9903
MEAN_ANOMALY   = 160.3632

EPHEMERIS_TYPE = 0
CLASSIFICATION_TYPE = U
NORAD_CAT_ID   = 16182
ELEMENT_SET_NO = 999
REV_AT_EPOCH   = 8202
BSTAR          = .16154863E-3
MEAN_MOTION_DOT = .275E-5
MEAN_MOTION_DDOT = 0

CCSDS_OMM_VERS = 2.0
CREATION_DATE  = 
ORIGINATOR     = 

OBJECT_NAME    = SL-14 R/B
OBJECT_ID      = 1986-006B
CENTER_NAME    = EARTH
REF_FRAME      = TEME
TIME_SYSTEM    = UTC
MEAN_ELEMENT_THEORY = SGP/SGP4

EPOCH          = 2026-01-31T23:25:57.631872
MEAN_MOTION    = 14.86759943
ECCENTRICITY   = .00775952
INCLINATION    = 82.5279
RA_OF_ASC_NODE = 294.2904
ARG_OF_PERICENTER = 35.3707
MEAN_ANOMALY   = 325.2620

EPHEMERIS_TYPE = 0
CLASSIFICATION_TYPE = U
NORAD_CAT_ID   = 16496
ELEMENT_SET_NO = 999
REV_AT_EPOCH   = 14375
BSTAR          = .88867921E-4
MEAN_MOTION_DOT = .863E-5
MEAN_MOTION_DDOT = 0

CCSDS_OMM_VERS = 2.0
CREATION_DATE  = 
ORIGINATOR     = 

OBJECT_NAME    = COSMOS 1743
OBJECT_ID      = 1986-034A
CENTER_NAME    = EARTH
REF_FRAME      = TEME
TIME_SYSTEM    = UTC
MEAN_ELEMENT_THEORY = SGP/SGP4

EPOCH          = 2026-01-31T22:46:37.400736
MEAN_MOTION    = 15.55861679
ECCENTRICITY   = .00053881
INCLINATION    = 82.5348
RA_OF_ASC_NODE = 112.3068
ARG_OF_PERICENTER = 73.8096
MEAN_ANOMALY   = 286.3751

EPHEMERIS_TYPE = 0
CLASSIFICATION_TYPE = U
NORAD_CAT_ID   = 16719
ELEMENT_SET_NO = 999
REV_AT_EPOCH   = 17453
BSTAR          = .4365131E-3
MEAN_MOTION_DOT = .30313E-3
MEAN_MOTION_DDOT = 0

