SL-3 R/B                
1 13403U 82079B   26031.91114403  .00005352  00000+0  21642-3 0  9994
2 13403  81.1437 236.4916 0024240 291.8935  67.9720 15.24270542372091
SL-14 R/B               
1 13553U 82092B   26031.90076962  .00000642  00000+0  69242-4 0  9997
2 13553  82.5693 175.7984 0021712  65.2201  33.3334 14.86622004323462
SL-3 R/B                
1 13819U 83010B   26031.53684771  .00013004  00000+0  27308-3 0  9997
2 13819  81.1013  47.7558 0017283 170.9006 189.2555 15.45054491352203
SL-3 R/B                
1 14208U 83075B   26031.92570052  .00010764  00000+0  29308-3 0  9992
2 14208  97.6117  35.1458 0022298   6.9784 353.1766 15.37440506324501
COSMOS 1536             
1 14699U 84013A   26031.80924831  .00005974  00000+0  24963-3 0  9993
2 14699  82.5476 144.4861 0015430  55.8945 304.3754 15.23311780267002
SL-14 R/B               
1 14820U 84027B   26031.79177236  .00000531  00000+0  57813-4 0  9996
2 14820  82.5413 279.6247 0019520  95.1517 265.1927 14.85938906242151
SL-8 R/B                
1 15483U 85006B   26031.99592219  .00000286  00000+0  10366-3 0  9992
2 15483  74.0477 328.6659 0019677 253.2297 202.2234 14.37762919148750
SL-12 R/B(2)            
1 15772U 85042D   26031.85338943  .00000185  00000+0  10465-3 0  9998
2 15772  71.1081 165.5503 0035415 186.6904 339.4445 14.21970798109155
SL-14 R/B               
1 15945U 85069B   26031.51845225  .00000579  00000+0  62740-4 0  9999
2 15945  82.5240  59.8954 0017717 319.3483  40.6410 14.86388126167311
SL-16 R/B               
1 16182U 85097B   26031.92315970  .00000275  00000+0  16155-3 0  9999
2 16182  71.0011 217.9540 0009243 302.9903 160.3632 14.16593817 82020
SL-14 R/B               
1 16496U 86006B   26031.97636148  .00000863  00000+0  88868-4 0  9990
2 16496  82.5279 294.2904 0077595  35.3707 325.2620 14.86759943143755
COSMOS 1743             
1 16719U 86034A   26031.94904399  .00030313  00000+0  43651-3 0  9995
2 16719  82.5348 112.3068 0005388  73.8096 286.3751 15.55861679174539
